[{"OBJECT_NAME":"QIANFAN-45","OBJECT_ID":"2024-232K","EPOCH":"2026-03-09T21:15:38.536416","MEAN_MOTION":13.51007368,"ECCENTRICITY":0.00128201,"INCLINATION":89.0071,"RA_OF_ASC_NODE":32.4286,"ARG_OF_PERICENTER":307.8822,"MEAN_ANOMALY":52.1169,"EPHEMERIS_TYPE":0,"CLASSIFICATION_TYPE":"U","NORAD_CAT_ID":62246,"ELEMENT_SET_NO":999,"REV_AT_EPOCH":11102,"BSTAR":0.00029429533,"MEAN_MOTION_DOT":2.02e-6,"MEAN_MOTION_DDOT":0},{"OBJECT_NAME":"DELTA 1 DEB","OBJECT_ID":"1975-052KQ","EPOCH":"2026-03-06T10:51:57.720960","MEAN_MOTION":13.27051157,"ECCENTRICITY":0.01051706,"INCLINATION":99.823,"RA_OF_ASC_NODE":126.5884,"ARG_OF_PERICENTER":116.5717,"MEAN_ANOMALY":261.8499,"EPHEMERIS_TYPE":0,"CLASSIFICATION_TYPE":"U","NORAD_CAT_ID":26836,"ELEMENT_SET_NO":999,"REV_AT_EPOCH":59454,"BSTAR":0.00018885829,"MEAN_MOTION_DOT":4.6e-7,"MEAN_MOTION_DDOT":0}]
